[{"OBJECT_NAME":"STARLINK-6101","OBJECT_ID":"2023-046Y","EPOCH":"2026-03-09T22:00:01.999584","MEAN_MOTION":15.17592192,"ECCENTRICITY":0.00011354,"INCLINATION":42.9997,"RA_OF_ASC_NODE":156.6579,"ARG_OF_PERICENTER":258.2594,"MEAN_ANOMALY":275.2462,"EPHEMERIS_TYPE":0,"CLASSIFICATION_TYPE":"U","NORAD_CAT_ID":56115,"ELEMENT_SET_NO":999,"REV_AT_EPOCH":577,"BSTAR":0.054602024,"MEAN_MOTION_DOT":0.0122169,"MEAN_MOTION_DDOT":0},{"OBJECT_NAME":"CZ-6A DEB","OBJECT_ID":"2022-151SL","EPOCH":"2026-03-09T10:13:37.626816","MEAN_MOTION":15.13067162,"ECCENTRICITY":0.00442991,"INCLINATION":99.1095,"RA_OF_ASC_NODE":231.9477,"ARG_OF_PERICENTER":182.6933,"MEAN_ANOMALY":177.4061,"EPHEMERIS_TYPE":0,"CLASSIFICATION_TYPE":"U","NORAD_CAT_ID":54947,"ELEMENT_SET_NO":999,"REV_AT_EPOCH":17723,"BSTAR":0.0054047259,"MEAN_MOTION_DOT":0.00099065,"MEAN_MOTION_DDOT":0}]
